STARLINK-30205          
1 57408U 23102E   23332.43757619  .00032228  00000+0  23895-2 0  9992
2 57408  43.0033  91.1281 0001687 290.0068  70.0592 15.02541232 21043
STARLINK-30222          
1 57409U 23102F   23331.82926658 -.00001517  00000+0 -97242-4 0  9994
2 57409  43.0036  94.3046 0001316 255.2106 104.8591 15.02528573 20953
STARLINK-30172          
1 57410U 23102G   23331.83591384 -.00004006  00000+0 -28174-3 0  9994
2 57410  43.0015  94.3438 0001358 270.7709  89.2978 15.02520790 20952
STARLINK-30214          
1 57411U 23102H   23332.47073340  .00013207  00000+0  99074-3 0  9991
2 57411  43.0036  90.5245 0001785 263.6580  96.4059 15.02543194 21046
STARLINK-30182          
1 57412U 23102J   23332.43089934  .00002725  00000+0  21671-3 0  9995
2 57412  43.0041  91.0768 0001687 288.5820  71.4839 15.02537410 21046
STARLINK-30191          
1 57413U 23102K   23332.48738849  .00012978  00000+0  97376-3 0  9993
2 57413  43.0031  90.6422 0001529 260.0174 100.0496 15.02544464 21056
STARLINK-30193          
1 57414U 23102L   23332.42424451  .00028721  00000+0  21313-2 0  9999
2 57414  43.0039  91.0256 0001386 300.4790  59.5915 15.02557573 21047
STARLINK-30208          
1 57415U 23102M   23332.41758282  .00017039  00000+0  12731-2 0  9995
2 57415  43.0029  90.9776 0001261 265.6385  94.4313 15.02543013 20836
STARLINK-30224          
1 57416U 23102N   23332.48073058  .00028551  00000+0  21185-2 0  9998
2 57416  43.0036  90.5918 0001520 298.0862  61.9826 15.02562781 21053
STARLINK-30043          
1 57417U 23102P   23332.47406185  .00003259  00000+0  25617-3 0  9992
2 57417  43.0032  90.5401 0001311 284.0151  76.0546 15.02546926 21050
STARLINK-30221          
1 57418U 23102Q   23332.47739958  .00010828  00000+0  81534-3 0  9990
2 57418  43.0029  90.5647 0001511 259.8278 100.2394 15.02539782 21054
MAYA-5                  
1 57419U 98067VW  23331.12760987  .00824204  31308-3  18785-2 0  9997
2 57419  51.6234 227.1735 0007653 172.6579 187.4543 15.96822050 20499
MAYA-6                  
1 57420U 98067VX  23332.10418481  .00714395  22675-3  17965-2 0  9992
2 57420  51.6207 222.4367 0007526 176.4396 183.6666 15.95008504 20648
2023-103A               
1 57421U 23103A   23332.49863048  .00059763  00000+0  17910-2 0  9992
2 57421  96.6160  46.4368 0011611 181.0658 179.0564 15.34219828 19745
2023-103B               
1 57422U 23103B   23330.99074216  .00016732  00000+0  29998-3 0  9996
2 57422  96.6180  46.2114 0012635   5.9030 354.2369 15.49897245 19606
2023-104A               
1 57424U 23104A   23332.48834014  .00015851  00000+0  60039-3 0  9997
2 57424  97.3855  37.4140 0013709 179.3616 180.7643 15.26904117 19569
2023-104B               
1 57425U 23104B   23332.46945393  .00016026  00000+0  60291-3 0  9994
2 57425  97.3853  37.4477 0014171 185.5586 174.5498 15.27121538 19568
2023-104C               
1 57426U 23104C   23332.45533219  .00030755  00000+0  10703-2 0  9991
2 57426  97.3858  37.6208 0012995 186.3947 173.7130 15.29560493 19585
2023-104D               
1 57427U 23104D   23332.49517134  .00036941  00000+0  12502-2 0  9996
2 57427  97.3841  37.7076 0012891 182.1728 177.9459 15.30428752 19581
STARLINK-30189          
1 57430U 23105A   23331.84567617  .00007979  00000+0  60509-3 0  9990
2 57430  43.0025 107.5651 0001301 285.8231  74.2468 15.02535221 20238
STARLINK-30170          
1 57431U 23105B   23332.44064372  .00000198  00000+0  29744-4 0  9991
2 57431  43.0035 104.2892 0001351 262.2992  97.7697 15.02541981 20378
STARLINK-30188          
1 57432U 23105C   23332.43732018  .00022402  00000+0  16675-2 0  9999
2 57432  43.0028 104.2635 0001424 288.1570  71.9117 15.02550010 20336
STARLINK-30105          
1 57433U 23105D   23331.67525728  .00017358  00000+0  71014-3 0  9996
2 57433  43.0044  91.8681 0003085 326.7165  33.3491 15.24052659 20507
STARLINK-30102          
1 57434U 23105E   23332.43066348  .00012660  00000+0  95040-3 0  9996
2 57434  43.0024 104.2137 0001455 285.9894  74.0788 15.02541552 20350
STARLINK-30180          
1 57435U 23105F   23331.83568977  .00026134  00000+0  19430-2 0  9994
2 57435  43.0018 107.4908 0001542 256.4588 103.6083 15.02526039 20333
STARLINK-30183          
1 57436U 23105G   23332.42733289  .00023234  00000+0  17286-2 0  9996
2 57436  43.0026 104.1882 0001525 286.9153  73.1522 15.02550821 20374
STARLINK-30237          
1 57437U 23105H   23332.48715132  .00014549  00000+0  10896-2 0  9999
2 57437  43.0015 103.7774 0001429 257.2205 102.8478 15.02544551 20610
STARLINK-30158          
1 57438U 23105J   23331.82570134  .00024986  00000+0  18586-2 0  9998
2 57438  43.0027 107.4136 0001407 261.7980  98.2702 15.02526306 20271
STARLINK-30173          
1 57439U 23105K   23331.77199383 -.00011215  00000+0 -59093-3 0  9998
2 57439  43.0028  95.1417 0001410 277.9119  82.1568 15.14269006 20417
STARLINK-30159          
1 57440U 23105L   23332.48380768 -.00005542  00000+0 -39571-3 0  9993
2 57440  43.0028 103.7491 0001287 268.2200  91.8495 15.02519825 20233
