OBJECT_NAME,OBJECT_ID,EPOCH,MEAN_MOTION,ECCENTRICITY,INCLINATION,RA_OF_ASC_NODE,ARG_OF_PERICENTER,MEAN_ANOMALY,EPHEMERIS_TYPE,CLASSIFICATION_TYPE,NORAD_CAT_ID,ELEMENT_SET_NO,REV_AT_EPOCH,BSTAR,MEAN_MOTION_DOT,MEAN_MOTION_DDOT
STARLINK-30205,2023-102E,2023-11-28T10:30:06.582816,15.02541232,.0001687,43.0033,91.1281,290.0068,70.0592,0,U,57408,999,2104,.23895E-2,.32228E-3,0
STARLINK-30222,2023-102F,2023-11-27T19:54:08.632512,15.02528573,.0001316,43.0036,94.3046,255.2106,104.8591,0,U,57409,999,2095,-.97242E-4,-.1517E-4,0
STARLINK-30172,2023-102G,2023-11-27T20:03:42.955776,15.02520790,.0001358,43.0015,94.3438,270.7709,89.2978,0,U,57410,999,2095,-.28174E-3,-.4006E-4,0
STARLINK-30214,2023-102H,2023-11-28T11:17:51.365760,15.02543194,.0001785,43.0036,90.5245,263.6580,96.4059,0,U,57411,999,2104,.99074E-3,.13207E-3,0
STARLINK-30182,2023-102J,2023-11-28T10:20:29.702976,15.02537410,.0001687,43.0041,91.0768,288.5820,71.4839,0,U,57412,999,2104,.21671E-3,.2725E-4,0
STARLINK-30191,2023-102K,2023-11-28T11:41:50.365536,15.02544464,.0001529,43.0031,90.6422,260.0174,100.0496,0,U,57413,999,2105,.97376E-3,.12978E-3,0
STARLINK-30193,2023-102L,2023-11-28T10:10:54.725664,15.02557573,.0001386,43.0039,91.0256,300.4790,59.5915,0,U,57414,999,2104,.21313E-2,.28721E-3,0
STARLINK-30208,2023-102M,2023-11-28T10:01:19.155648,15.02543013,.0001261,43.0029,90.9776,265.6385,94.4313,0,U,57415,999,2083,.12731E-2,.17039E-3,0
STARLINK-30224,2023-102N,2023-11-28T11:32:15.122112,15.02562781,.000152,43.0036,90.5918,298.0862,61.9826,0,U,57416,999,2105,.21185E-2,.28551E-3,0
STARLINK-30043,2023-102P,2023-11-28T11:22:38.943840,15.02546926,.0001311,43.0032,90.5401,284.0151,76.0546,0,U,57417,999,2105,.25617E-3,.3259E-4,0
STARLINK-30221,2023-102Q,2023-11-28T11:27:27.323712,15.02539782,.0001511,43.0029,90.5647,259.8278,100.2394,0,U,57418,999,2105,.81534E-3,.10828E-3,0
MAYA-5,1998-067VW,2023-11-27T03:03:45.492768,15.96822050,.0007653,51.6234,227.1735,172.6579,187.4543,0,U,57419,999,2049,.18785E-2,.824204E-2,.31308E-3
MAYA-6,1998-067VX,2023-11-28T02:30:01.567584,15.95008504,.0007526,51.6207,222.4367,176.4396,183.6666,0,U,57420,999,2064,.17965E-2,.714395E-2,.22675E-3
2023-103A,2023-103A,2023-11-28T11:58:01.673472,15.34219828,.0011611,96.6160,46.4368,181.0658,179.0564,0,U,57421,999,1974,.1791E-2,.59763E-3,0
2023-103B,2023-103B,2023-11-26T23:46:40.122624,15.49897245,.0012635,96.6180,46.2114,5.9030,354.2369,0,U,57422,999,1960,.29998E-3,.16732E-3,0
2023-104A,2023-104A,2023-11-28T11:43:12.588096,15.26904117,.0013709,97.3855,37.4140,179.3616,180.7643,0,U,57424,999,1956,.60039E-3,.15851E-3,0
2023-104B,2023-104B,2023-11-28T11:16:00.819552,15.27121538,.0014171,97.3853,37.4477,185.5586,174.5498,0,U,57425,999,1956,.60291E-3,.16026E-3,0
2023-104C,2023-104C,2023-11-28T10:55:40.701216,15.29560493,.0012995,97.3858,37.6208,186.3947,173.7130,0,U,57426,999,1958,.10703E-2,.30755E-3,0
2023-104D,2023-104D,2023-11-28T11:53:02.803776,15.30428752,.0012891,97.3841,37.7076,182.1728,177.9459,0,U,57427,999,1958,.12502E-2,.36941E-3,0
STARLINK-30189,2023-105A,2023-11-27T20:17:46.421088,15.02535221,.0001301,43.0025,107.5651,285.8231,74.2468,0,U,57430,999,2023,.60509E-3,.7979E-4,0
STARLINK-30170,2023-105B,2023-11-28T10:34:31.617408,15.02541981,.0001351,43.0035,104.2892,262.2992,97.7697,0,U,57431,999,2037,.29744E-4,.198E-5,0
STARLINK-30188,2023-105C,2023-11-28T10:29:44.463552,15.02550010,.0001424,43.0028,104.2635,288.1570,71.9117,0,U,57432,999,2033,.16675E-2,.22402E-3,0
STARLINK-30105,2023-105D,2023-11-27T16:12:22.228992,15.24052659,.0003085,43.0044,91.8681,326.7165,33.3491,0,U,57433,999,2050,.71014E-3,.17358E-3,0
STARLINK-30102,2023-105E,2023-11-28T10:20:09.324672,15.02541552,.0001455,43.0024,104.2137,285.9894,74.0788,0,U,57434,999,2035,.9504E-3,.1266E-3,0
STARLINK-30180,2023-105F,2023-11-27T20:03:23.596128,15.02526039,.0001542,43.0018,107.4908,256.4588,103.6083,0,U,57435,999,2033,.1943E-2,.26134E-3,0
STARLINK-30183,2023-105G,2023-11-28T10:15:21.561696,15.02550821,.0001525,43.0026,104.1882,286.9153,73.1522,0,U,57436,999,2037,.17286E-2,.23234E-3,0
STARLINK-30237,2023-105H,2023-11-28T11:41:29.874048,15.02544551,.0001429,43.0015,103.7774,257.2205,102.8478,0,U,57437,999,2061,.10896E-2,.14549E-3,0
STARLINK-30158,2023-105J,2023-11-27T19:49:00.595776,15.02526306,.0001407,43.0027,107.4136,261.7980,98.2702,0,U,57438,999,2027,.18586E-2,.24986E-3,0
STARLINK-30173,2023-105K,2023-11-27T18:31:40.266912,15.14269006,.000141,43.0028,95.1417,277.9119,82.1568,0,U,57439,999,2041,-.59093E-3,-.11215E-3,0
STARLINK-30159,2023-105L,2023-11-28T11:36:40.983552,15.02519825,.0001287,43.0028,103.7491,268.2200,91.8495,0,U,57440,999,2023,-.39571E-3,-.5542E-4,0
